STARLINK-1667           
1 46155U 20057AQ  22363.43597549 -.00002257  00000+0 -13268-3 0  9997
2 46155  53.0551 112.1413 0001672  68.2352 291.8815 15.06386466132080
STARLINK-1545           
1 46156U 20057AR  22363.36041041 -.00000251  00000+0  20821-5 0  9997
2 46156  53.0516 132.4876 0002973  43.8117 316.3107 15.06395732131805
STARLINK-1587           
1 46157U 20057AS  22363.34751047 -.00002216  00000+0 -12996-3 0  9996
2 46157  53.0532 112.5392 0001985  39.8000 320.3135 15.06389558130831
STARLINK-1589           
1 46158U 20057AT  22363.27748173 -.00001422  00000+0 -76603-4 0  9999
2 46158  53.0539 112.8492 0001925  49.5899 310.5258 15.06387744132082
STARLINK-1595           
1 46159U 20057AU  22363.51706152 -.00001700  00000+0 -95301-4 0  9993
2 46159  53.0516 151.7780 0001480  68.8445 291.2702 15.06388011131555
STARLINK-1598           
1 46160U 20057AV  22363.10976321 -.00001260  00000+0 -65701-4 0  9999
2 46160  53.0546 133.6025 0001451  76.8937 283.2214 15.06394417131763
STARLINK-1600           
1 46161U 20057AW  22363.48573898 -.00001897  00000+0 -10857-3 0  9990
2 46161  53.0549 131.9122 0001273  81.1729 278.9404 15.06385494131820
STARLINK-1603           
1 46162U 20057AX  22363.35672630 -.00000331  00000+0 -33345-5 0  9992
2 46162  53.0522 132.4958 0001299  74.5086 285.6046 15.06390933131815
STARLINK-1610           
1 46163U 20057AY  22363.35489847 -.00003405  00000+0 -20991-3 0  9995
2 46163  53.0598 112.5118 0001793  68.5865 291.5315 15.06380379130832
STARLINK-1612           
1 46164U 20057AZ  22363.01946119 -.00002182  00000+0 -12763-3 0  9998
2 46164  53.0557 113.9965 0001714  53.2999 306.8147 15.06395232132047
STARLINK-1613           
1 46165U 20057BA  22363.39736200  .00023644  00000+0  10480-2 0  9995
2 46165  53.0603 134.5292 0005638 150.3397 209.7919 15.21509306130538
STARLINK-1615           
1 46166U 20057BB  22363.13741896 -.00001156  00000+0 -58760-4 0  9996
2 46166  53.0523 153.4822 0001450  76.0611 284.0540 15.06392577130247
STARLINK-1626           
1 46167U 20057BC  22363.15216586  .00000118  00000+0  26819-4 0  9997
2 46167  53.0563 153.3982 0001177  85.9947 274.1176 15.06396798130249
STARLINK-1627           
1 46168U 20057BD  22363.39636477 -.00002322  00000+0 -13708-3 0  9992
2 46168  53.0558 102.4036 0001758  57.6853 302.4306 15.06387655130978
STARLINK-1628           
1 46169U 20057BE  22363.14145359 -.00000628  00000+0 -23958-4 0  9996
2 46169  53.0599 153.5395 0001075  95.3127 264.7985 15.05584447130187
STARLINK-1633           
1 46171U 20057BG  22363.39356818  .00000536  00000+0  54854-4 0  9995
2 46171  53.0553 132.3257 0001518  57.8077 302.3059 15.06401452131818
STARLINK-1635           
1 46172U 20057BH  22363.47467658 -.00001504  00000+0 -82125-4 0  9990
2 46172  53.0553 131.9593 0001547  56.7535 303.3602 15.06391346131822
STARLINK-1640           
1 46173U 20057BJ  22363.38809184 -.00003414  00000+0 -21064-3 0  9991
2 46173  53.0530 152.3468 0001618  70.7456 289.3708 15.06362458130273
STARLINK-1641           
1 46174U 20057BK  22363.13003576 -.00001315  00000+0 -69367-4 0  9993
2 46174  53.0536 153.5052 0001627  63.3585 296.7570 15.06403845130234
SKYSAT-C17              
1 46179U 20057BQ  22363.52615410  .00031854  00000+0  37758-3 0  9994
2 46179  52.9874 187.2362 0007355 312.0444  47.9942 15.60932959135701
SKYSAT-C18              
1 46180U 20057BR  22363.49599240  .00027302  00000+0  29140-3 0  9993
2 46180  52.9833 186.5782 0006324   8.3829 351.7288 15.63735610134417
GAOFEN 9-05             
1 46232U 20058A   22363.42633955  .00003632  00000+0  15376-3 0  9993
2 46232  97.3812  54.9382 0013206 142.7581 227.7917 15.23734609130683
MULTIFUNCTION TEST SAT  
1 46233U 20058B   22363.64187112  .00010051  00000+0  34142-3 0  9992
2 46233  97.3820  58.0821 0015206 121.7480  29.3947 15.30568534130895
TIANTUO 5               
1 46234U 20058C   22363.64282961  .00004337  00000+0  16694-3 0  9993
2 46234  97.3815  56.8258 0016984 121.6304  29.2853 15.26776235130819
SKYSAT-C19              
1 46235U 20057BS  22363.24046021  .00028668  00000+0  35569-3 0  9999
2 46235  52.9841 185.8124 0005411 343.4241  16.6592 15.59805550134406
SAOCOM 1B               
1 46265U 20059A   22363.14186113  .00000315  00000+0  46139-4 0  9995
2 46265  97.8840 186.1228 0001384  85.6813 274.4604 14.82154575125968
GNOMES-1                
1 46266U 20059B   22363.28274859  .00002343  00000+0  25293-3 0  9996
2 46266  97.8722 193.4697 0004137 218.0630 142.0295 14.89325080126478
TYVAK-0172              
1 46267U 20059C   22363.50164598  .00004707  00000+0  47197-3 0  9993
2 46267  97.8605 193.5557 0005088 225.8700 134.2100 14.91815137126574
RLFL14                  
1 46268U 20060A   22363.35713875  .00007674  00000+0  42158-3 0  9995
2 46268  45.1035 133.8928 0011180 339.2494  20.8013 15.14617864128609
CAPELLA-2-SEQUOIA       
1 46269U 20060B   22363.53051142  .00108274  00000+0  24225-2 0  9990
2 46269  45.0944  94.8410 0012671 339.9716  20.0605 15.42369586129099
NUSAT-6 (HYPATIA)       
1 46272U 20061A   22363.60978806  .00010480  00000+0  38482-3 0  9990
2 46272  97.3076  70.5628 0008028  98.5336 261.6814 15.28086422128990
ESAIL                   
1 46273U 20061B   22363.46894094  .00006927  00000+0  32177-3 0  9997
2 46273  97.3749  69.5717 0006190 153.5558 206.5994 15.20295325128433
ION-MK01                
1 46274U 20061C   22363.45450527  .00004635  00000+0  22664-3 0  9990
2 46274  97.3741  68.9720 0006284 155.0477 205.1063 15.18687873128391
ATHENA                  
1 46275U 20061D   22363.47233880  .00004053  00000+0  19861-3 0  9993
2 46275  97.3701  69.2291 0001656 132.4776 227.6599 15.18696029128446
UPMSAT-2                
1 46276U 20061E   22363.43549331  .00004805  00000+0  22649-3 0  9994
2 46276  97.3707  69.7748 0001477 142.0054 218.1286 15.19956906128477
NEMO-HD                 
1 46277U 20061F   22363.58504829  .00003649  00000+0  17922-3 0  9997
2 46277  97.3703  69.4689 0001255 140.7498 358.2627 15.18680327128460
GHGSAT-C1               
1 46278U 20061G   22363.54703399  .00006456  00000+0  29627-3 0  9991
2 46278  97.3713  70.4121 0000459 268.2210 198.8346 15.20754406128524
SIMBA                   
1 46279U 20061H   22363.15273709  .00009682  00000+0  50478-3 0  9998
2 46279  97.4263  68.5217 0002875 330.7566  29.3505 15.16168284127929
TRISAT                  
1 46280U 20061J   22363.46931544  .00009596  00000+0  50354-3 0  9999
2 46280  97.4221  68.5381 0002485 324.6463  35.4605 15.15945076127977
PICASSO-BEL             
1 46281U 20061K   22363.46540509  .00012204  00000+0  59954-3 0  9992
2 46281  97.4261  69.5759 0002425 319.2712  40.8341 15.18197858128049
DIDO 3                  
1 46284U 20061N   22363.43810332  .00005950  00000+0  32506-3 0  9990
2 46284  97.4245  68.3156 0002142 327.8906  32.2195 15.14676109127912
FLOCK 4V-11             
1 46285U 20061P   22363.50143434  .00005552  00000+0  27516-3 0  9994
2 46285  97.4270  69.7500 0002342 324.6993  35.4086 15.18148057128041
FLOCK 4V-14             
1 46286U 20061Q   22362.63636573  .00019451  00000+0  95507-3 0  9997
2 46286  97.4274  68.9280 0001981 317.1565  42.9514 15.18111333127913
AMICALSAT               
1 46287U 20061R   22363.42476040  .00006189  00000+0  33437-3 0  9995
2 46287  97.4250  68.5382 0001946   2.2249 357.8992 15.15053188127962
FLOCK 4V-8              
1 46288U 20061S   22363.41910241  .00013652  00000+0  67167-3 0  9991
2 46288  97.4274  69.6888 0001641 350.5898   9.5305 15.18120167127945
FLOCK 4V-6              
1 46289U 20061T   22363.14812251  .00007317  00000+0  36390-3 0  9999
2 46289  97.4285  69.4910 0001774  29.9593 330.1742 15.17917799127995
FLOCK 4V-5              
1 46290U 20061U   22363.44773430  .00005011  00000+0  27290-3 0  9997
2 46290  97.4281  69.0620 0001897 358.0990   2.0235 15.14859254127990
FLOCK 4V-7              
1 46291U 20061V   22363.18834069  .00006169  00000+0  30597-3 0  9994
2 46291  97.4274  69.5685 0001429 354.0467   6.0750 15.18077147127897
3CAT-5A                 
1 46292U 20061W   22363.25363193  .00003814  00000+0  21980-3 0  9998
2 46292  97.4240  67.7955 0001749 288.3625  71.7416 15.12982298127884
3CAT-5B                 
1 46293U 20061X   22363.43921002  .00003258  00000+0  18715-3 0  9992
2 46293  97.4239  68.1268 0001652 278.3285  81.7759 15.13198089127899
OSM-1 CICERO            
1 46294U 20061Y   22363.44380909  .00005505  00000+0  29941-3 0  9999
2 46294  97.4252  68.9543 0001436 276.4040  83.7028 15.14868915127970
TYVAK-0171              
1 46295U 20061Z   22363.44362902  .00012354  00000+0  57665-3 0  9997
2 46295  97.4321  70.9808 0001303 254.5558 105.5533 15.19973208128027
FLOCK 4V-10             
1 46296U 20061AA  22363.00785586  .00009804  00000+0  48469-3 0  9995
2 46296  97.4278  69.5539 0000834 100.3233 259.8095 15.18036913127948
FLOCK 4V-13             
1 46297U 20061AB  22362.93398972  .00013265  00000+0  65331-3 0  9999
2 46297  97.4286  69.5007 0000675  94.0934 266.0377 15.18090280127915
LEMUR-2-ETHANOAKES      
1 46298U 20061AC  22363.47419483  .00018215  00000+0  77583-3 0  9993
2 46298  97.4306  72.1937 0000706 139.8662 220.2627 15.23023538128124
LEMUR-2-OSCARLATOR      
1 46299U 20061AD  22363.48280951  .00022207  00000+0  91940-3 0  9990
2 46299  97.4310  72.3825 0000299 105.5269 254.6001 15.23944008128163
SPACEBEE-21             
1 46300U 20061AE  22362.95786093  .00029690  00000+0  10651-2 0  9994
2 46300  97.4300  73.2654 0000466 123.4087 236.7197 15.28653857128136
SPACEBEE-20             
1 46301U 20061AF  22363.41936262  .00031958  00000+0  11459-2 0  9999
2 46301  97.4337  73.8670 0000666 150.9094 209.2182 15.28653902128204
SPACEBEE-15             
1 46302U 20061AG  22363.44114549  .00037992  00000+0  12531-2 0  9995
2 46302  97.4301  74.4664 0000581 123.1890 236.9407 15.31334390128251
SPACEBEE-19             
1 46303U 20061AH  22362.18206517  .00042845  00000+0  14935-2 0  9996
2 46303  97.4306  72.8098 0000660 137.7111 222.4180 15.29511176128035
